CTC2_L_00104001-01
1 29142U 26888XM  26070.40843750  .00000000  00000+0  00000-0 0  9995
2 29142  80.0000   0.0000 0000000   0.0000   0.0000 14.60983543    12
CTC2_L_00104001-02
1 29143U 24634SF  26070.40843750  .00000000  00000+0  00000-0 0  9993
2 29143  80.0000   0.0000 0000000   0.0000  90.0000 14.60983543    12
CTC2_L_00104001-03
1 29144U 24919EO  26070.40843750  .00000000  00000+0  00000-0 0  9990
2 29144  80.0000   0.0000 0000000   0.0000 180.0000 14.60983543    13
CTC2_L_00104001-04
1 29145U 26514CJ  26070.40843750  .00000000  00000+0  00000-0 0  9994
2 29145  80.0000   0.0000 0000000   0.0000 270.0000 14.60983543    14
CTC2_L_00104002-01
1 29146U 26274EZ  26070.40843750  .00000000  00000+0  00000-0 0  9998
2 29146  80.0000  12.0000 0000000   0.0000  12.0000 14.60983543    12
CTC2_L_00104002-02
1 29147U 25675HV  26070.40843750  .00000000  00000+0  00000-0 0  9993
2 29147  80.0000  12.0000 0000000   0.0000 102.0000 14.60983543    13
CTC2_L_00104002-03
1 29148U 24913PT  26070.40843750  .00000000  00000+0  00000-0 0  9998
2 29148  80.0000  12.0000 0000000   0.0000 192.0000 14.60983543    13
CTC2_L_00104002-04
1 29149U 25724OP  26070.40843750  .00000000  00000+0  00000-0 0  9990
2 29149  80.0000  12.0000 0000000   0.0000 282.0000 14.60983543    14
CTC2_L_00104003-01
1 29150U 22044RY  26070.40843750  .00000000  00000+0  00000-0 0  9994
2 29150  80.0000  24.0000 0000000   0.0000  24.0000 14.60983543    13
CTC2_L_00104003-02
1 29151U 24974YF  26070.40843750  .00000000  00000+0  00000-0 0  9999
2 29151  80.0000  24.0000 0000000   0.0000 114.0000 14.60983543    14
CTC2_L_00104003-03
1 29152U 22102GC  26070.40843750  .00000000  00000+0  00000-0 0  9991
2 29152  80.0000  24.0000 0000000   0.0000 204.0000 14.60983543    15
CTC2_L_00104003-04
1 29153U 25282KO  26070.40843750  .00000000  00000+0  00000-0 0  9994
2 29153  80.0000  24.0000 0000000   0.0000 294.0000 14.60983543    15
CTC2_L_00104004-01
1 29154U 22982SU  26070.40843750  .00000000  00000+0  00000-0 0  9999
2 29154  80.0000  36.0000 0000000   0.0000  36.0000 14.60983543    13
CTC2_L_00104004-02
1 29155U 26111IK  26070.40843750  .00000000  00000+0  00000-0 0  9998
2 29155  80.0000  36.0000 0000000   0.0000 126.0000 14.60983543    14
CTC2_L_00104004-03
1 29156U 23072GY  26070.40843750  .00000000  00000+0  00000-0 0  9992
2 29156  80.0000  36.0000 0000000   0.0000 216.0000 14.60983543    15
CTC2_L_00104004-04
1 29157U 25653QI  26070.40843750  .00000000  00000+0  00000-0 0  9990
2 29157  80.0000  36.0000 0000000   0.0000 306.0000 14.60983543    16
CTC2_L_00104005-01
1 29158U 22111GC  26070.40843750  .00000000  00000+0  00000-0 0  9997
2 29158  80.0000  48.0000 0000000   0.0000  48.0000 14.60983543    13
CTC2_L_00104005-02
1 29159U 25361QE  26070.40843750  .00000000  00000+0  00000-0 0  9998
2 29159  80.0000  48.0000 0000000   0.0000 138.0000 14.60983543    14
CTC2_L_00104005-03
1 29160U 24023UG  26070.40843750  .00000000  00000+0  00000-0 0  9994
2 29160  80.0000  48.0000 0000000   0.0000 228.0000 14.60983543    16
CTC2_L_00104005-04
1 29161U 22663LM  26070.40843750  .00000000  00000+0  00000-0 0  9993
2 29161  80.0000  48.0000 0000000   0.0000 318.0000 14.60983543    17
CTC2_L_00104006-01
1 29162U 24597OH  26070.40843750  .00000000  00000+0  00000-0 0  9992
2 29162  80.0000  60.0000 0000000   0.0000  60.0000 14.60983543    16
CTC2_L_00104006-02
1 29163U 26424YV  26070.40843750  .00000000  00000+0  00000-0 0  9994
2 29163  80.0000  60.0000 0000000   0.0000 150.0000 14.60983543    17
CTC2_L_00104006-03
1 29164U 26625VJ  26070.40843750  .00000000  00000+0  00000-0 0  9998
2 29164  80.0000  60.0000 0000000   0.0000 240.0000 14.60983543    18
CTC2_L_00104006-04
1 29165U 23299HL  26070.40843750  .00000000  00000+0  00000-0 0  9993
2 29165  80.0000  60.0000 0000000   0.0000 330.0000 14.60983543    19
CTC2_L_00104007-01
1 29166U 24935GW  26070.40843750  .00000000  00000+0  00000-0 0  9992
2 29166  80.0000  72.0000 0000000   0.0000  72.0000 14.60983543    16
CTC2_L_00104007-02
1 29167U 25580VV  26070.40843750  .00000000  00000+0  00000-0 0  9990
2 29167  80.0000  72.0000 0000000   0.0000 162.0000 14.60983543    17
CTC2_L_00104007-03
1 29168U 23798MZ  26070.40843750  .00000000  00000+0  00000-0 0  9990
2 29168  80.0000  72.0000 0000000   0.0000 252.0000 14.60983543    18
CTC2_L_00104007-04
1 29169U 22659FH  26070.40843750  .00000000  00000+0  00000-0 0  9996
2 29169  80.0000  72.0000 0000000   0.0000 342.0000 14.60983543    19
CTC2_L_00104008-01
1 29170U 23763VP  26070.40843750  .00000000  00000+0  00000-0 0  9995
2 29170  80.0000  84.0000 0000000   0.0000  84.0000 14.60983543    17
CTC2_L_00104008-02
1 29171U 22849PO  26070.40843750  .00000000  00000+0  00000-0 0  9990
2 29171  80.0000  84.0000 0000000   0.0000 174.0000 14.60983543    18
CTC2_L_00104008-03
1 29172U 26128NX  26070.40843750  .00000000  00000+0  00000-0 0  9995
2 29172  80.0000  84.0000 0000000   0.0000 264.0000 14.60983543    19
CTC2_L_00104008-04
1 29173U 22908ZG  26070.40843750  .00000000  00000+0  00000-0 0  9998
2 29173  80.0000  84.0000 0000000   0.0000 354.0000 14.60983543    10
CTC2_L_00104009-01
1 29174U 26195XL  26070.40843750  .00000000  00000+0  00000-0 0  9991
2 29174  80.0000  96.0000 0000000   0.0000  96.0000 14.60983543    17
CTC2_L_00104009-02
1 29175U 23846QV  26070.40843750  .00000000  00000+0  00000-0 0  9992
2 29175  80.0000  96.0000 0000000   0.0000 186.0000 14.60983543    18
CTC2_L_00104009-03
1 29176U 25230BA  26070.40843750  .00000000  00000+0  00000-0 0  9992
2 29176  80.0000  96.0000 0000000   0.0000 276.0000 14.60983543    19
CTC2_L_00104009-04
1 29177U 24676WF  26070.40843750  .00000000  00000+0  00000-0 0  9996
2 29177  80.0000  96.0000 0000000   0.0000   6.0000 14.60983543    11
CTC2_L_00104010-01
1 29178U 24187TM  26070.40843750  .00000000  00000+0  00000-0 0  9994
2 29178  80.0000 108.0000 0000000   0.0000 108.0000 14.60983543    19
CTC2_L_00104010-02
1 29179U 24452NK  26070.40843750  .00000000  00000+0  00000-0 0  9990
2 29179  80.0000 108.0000 0000000   0.0000 198.0000 14.60983543    19
CTC2_L_00104010-03
1 29180U 26288EA  26070.40843750  .00000000  00000+0  00000-0 0  9991
2 29180  80.0000 108.0000 0000000   0.0000 288.0000 14.60983543    11
CTC2_L_00104010-04
1 29181U 25162XZ  26070.40843750  .00000000  00000+0  00000-0 0  9992
2 29181  80.0000 108.0000 0000000   0.0000  18.0000 14.60983543    13
CTC2_L_00104011-01
1 29182U 26294GX  26070.40843750  .00000000  00000+0  00000-0 0  9990
2 29182  80.0000 120.0000 0000000   0.0000 120.0000 14.60983543    12
CTC2_L_00104011-02
1 29183U 26886HS  26070.40843750  .00000000  00000+0  00000-0 0  9998
2 29183  80.0000 120.0000 0000000   0.0000 210.0000 14.60983543    13
CTC2_L_00104011-03
1 29184U 22594CD  26070.40843750  .00000000  00000+0  00000-0 0  9991
2 29184  80.0000 120.0000 0000000   0.0000 300.0000 14.60983543    14
CTC2_L_00104011-04
1 29185U 24543HD  26070.40843750  .00000000  00000+0  00000-0 0  9998
2 29185  80.0000 120.0000 0000000   0.0000  30.0000 14.60983543    15
CTC2_L_00104012-01
1 29186U 24270X   26070.40843750  .00000000  00000+0  00000-0 0  9996
2 29186  80.0000 132.0000 0000000   0.0000 132.0000 14.60983543    12
CTC2_L_00104012-02
1 29187U 24983RB  26070.40843750  .00000000  00000+0  00000-0 0  9998
2 29187  80.0000 132.0000 0000000   0.0000 222.0000 14.60983543    13
CTC2_L_00104012-03
1 29188U 24044AO  26070.40843750  .00000000  00000+0  00000-0 0  9997
2 29188  80.0000 132.0000 0000000   0.0000 312.0000 14.60983543    14
CTC2_L_00104012-04
1 29189U 24452XN  26070.40843750  .00000000  00000+0  00000-0 0  9991
2 29189  80.0000 132.0000 0000000   0.0000  42.0000 14.60983543    15
CTC2_L_00104013-01
1 29190U 25302BF  26070.40843750  .00000000  00000+0  00000-0 0  9998
2 29190  80.0000 144.0000 0000000   0.0000 144.0000 14.60983543    13
CTC2_L_00104013-02
1 29191U 24743NA  26070.40843750  .00000000  00000+0  00000-0 0  9997
2 29191  80.0000 144.0000 0000000   0.0000 234.0000 14.60983543    14
CTC2_L_00104013-03
1 29192U 25056LU  26070.40843750  .00000000  00000+0  00000-0 0  9996
2 29192  80.0000 144.0000 0000000   0.0000 324.0000 14.60983543    15
CTC2_L_00104013-04
1 29193U 22507OQ  26070.40843750  .00000000  00000+0  00000-0 0  9995
2 29193  80.0000 144.0000 0000000   0.0000  54.0000 14.60983543    16
CTC2_L_00104014-01
1 29194U 23655ZR  26070.40843750  .00000000  00000+0  00000-0 0  9991
2 29194  80.0000 156.0000 0000000   0.0000 156.0000 14.60983543    13
CTC2_L_00104014-02
1 29195U 22478KP  26070.40843750  .00000000  00000+0  00000-0 0  9994
2 29195  80.0000 156.0000 0000000   0.0000 246.0000 14.60983543    14
CTC2_L_00104014-03
1 29196U 24517EU  26070.40843750  .00000000  00000+0  00000-0 0  9991
2 29196  80.0000 156.0000 0000000   0.0000 336.0000 14.60983543    15
CTC2_L_00104014-04
1 29197U 24672NC  26070.40843750  .00000000  00000+0  00000-0 0  9994
2 29197  80.0000 156.0000 0000000   0.0000  66.0000 14.60983543    16
CTC2_L_00104015-01
1 29198U 22746IB  26070.40843750  .00000000  00000+0  00000-0 0  9995
2 29198  80.0000 168.0000 0000000   0.0000 168.0000 14.60983543    13
CTC2_L_00104015-02
1 29199U 24115SM  26070.40843750  .00000000  00000+0  00000-0 0  9998
2 29199  80.0000 168.0000 0000000   0.0000 258.0000 14.60983543    14
CTC2_L_00104015-03
1 29200U 26071GH  26070.40843750  .00000000  00000+0  00000-0 0  9994
2 29200  80.0000 168.0000 0000000   0.0000 348.0000 14.60983543    17
CTC2_L_00104015-04
1 29201U 23796OO  26070.40843750  .00000000  00000+0  00000-0 0  9996
2 29201  80.0000 168.0000 0000000   0.0000  78.0000 14.60983543    18
CTC2_L_00104016-01
1 29202U 25018CH  26070.40843750  .00000000  00000+0  00000-0 0  9996
2 29202  80.0000 180.0000 0000000   0.0000 180.0000 14.60983543    17
CTC2_L_00104016-02
1 29203U 25259AD  26070.40843750  .00000000  00000+0  00000-0 0  9994
2 29203  80.0000 180.0000 0000000   0.0000 270.0000 14.60983543    18
